start=new Date('2021-11-29T00:00:00.000Z').valueOf();
sats=[{"PERIAPSIS":"357.218","SITE":"AFWTR","MEAN_MOTION_DDOT":"0.0000000000000","ARG_OF_PERICENTER":"279.3090","REF_FRAME":"TEME","BSTAR":"-0.00005570600000","RCS_SIZE":"LARGE","REV_AT_EPOCH":"368","ELEMENT_SET_NO":"999","GP_ID":"190687565","PERIOD":"91.733","MEAN_ELEMENT_THEORY":"SGP4","APOAPSIS":"361.900","MEAN_MOTION":"15.69769345","OBJECT_ID":"2021-082P","CLASSIFICATION_TYPE":"U","OBJECT_TYPE":"PAYLOAD","NORAD_CAT_ID":"49143","SEMIMAJOR_AXIS":"6737.694","TLE_LINE2":"2 49143  69.9989 273.8323 0003475 279.3090 226.2433 15.69769345  3684","TIME_SYSTEM":"UTC","INCLINATION":"69.9989","EPOCH":"2021-11-28T22:00:01.999584","OBJECT_NAME":"STARLINK-3109","EPHEMERIS_TYPE":"0","CENTER_NAME":"EARTH","FILE":"3226391","DECAY_DATE":null,"TLE_LINE1":"1 49143U 21082P   21332.91668981 -.00006862  00000-0 -55706-4 0  9994","LAUNCH_DATE":"2021-09-14","MEAN_MOTION_DOT":"-0.00006862","COUNTRY_CODE":"US","ECCENTRICITY":"0.00034750","MEAN_ANOMALY":"226.2433","RA_OF_ASC_NODE":"273.8323"},{"NORAD_CAT_ID":"49144","OBJECT_TYPE":"PAYLOAD","CLASSIFICATION_TYPE":"U","MEAN_MOTION":"15.42791528","OBJECT_ID":"2021-082Q","APOAPSIS":"440.193","PERIOD":"93.337","MEAN_ELEMENT_THEORY":"SGP4","ELEMENT_SET_NO":"999","GP_ID":"190687692","REV_AT_EPOCH":"367","RCS_SIZE":"LARGE","BSTAR":"-0.01621900000000","SITE":"AFWTR","ARG_OF_PERICENTER":"277.9899","MEAN_MOTION_DDOT":"0.0000000000000","REF_FRAME":"TEME","PERIAPSIS":"435.561","MEAN_ANOMALY":"19.4276","RA_OF_ASC_NODE":"274.9681","COUNTRY_CODE":"US","ECCENTRICITY":"0.00033980","LAUNCH_DATE":"2021-09-14","MEAN_MOTION_DOT":"-0.00655088","TLE_LINE1":"1 49144U 21082Q   21332.91668981 -.00655088  00000-0 -16219-1 0  9998","DECAY_DATE":null,"FILE":"3226391","CENTER_NAME":"EARTH","EPHEMERIS_TYPE":"0","OBJECT_NAME":"STARLINK-3100","EPOCH":"2021-11-28T22:00:01.999584","TIME_SYSTEM":"UTC","INCLINATION":"70.0004","TLE_LINE2":"2 49144  70.0004 274.9681 0003398 277.9899  19.4276 15.42791528  3675","SEMIMAJOR_AXIS":"6816.012"},{"COUNTRY_CODE":"US","ECCENTRICITY":"0.00037480","LAUNCH_DATE":"2021-09-14","MEAN_MOTION_DOT":"-0.00082972","RA_OF_ASC_NODE":"273.8116","MEAN_ANOMALY":"235.9139","FILE":"3226391","TLE_LINE1":"1 49145U 21082R   21332.91668981 -.00082972  00000-0 -69811-3 0  9993","DECAY_DATE":null,"OBJECT_NAME":"STARLINK-3119","EPOCH":"2021-11-28T22:00:01.999584","INCLINATION":"69.9973","TIME_SYSTEM":"UTC","CENTER_NAME":"EARTH","EPHEMERIS_TYPE":"0","TLE_LINE2":"2 49145  69.9973 273.8116 0003748 278.1682 235.9139 15.69817195  3683","SEMIMAJOR_AXIS":"6737.557","OBJECT_TYPE":"PAYLOAD","NORAD_CAT_ID":"49145","APOAPSIS":"361.947","PERIOD":"91.730","MEAN_ELEMENT_THEORY":"SGP4","CLASSIFICATION_TYPE":"U","OBJECT_ID":"2021-082R","MEAN_MOTION":"15.69817195","GP_ID":"190687162","ELEMENT_SET_NO":"999","REV_AT_EPOCH":"368","REF_FRAME":"TEME","ARG_OF_PERICENTER":"278.1682","SITE":"AFWTR","MEAN_MOTION_DDOT":"0.0000000000000","PERIAPSIS":"356.897","RCS_SIZE":"LARGE","BSTAR":"-0.00069811000000"},{"CLASSIFICATION_TYPE":"U","MEAN_MOTION":"15.69776870","OBJECT_ID":"2021-082S","APOAPSIS":"361.981","PERIOD":"91.733","MEAN_ELEMENT_THEORY":"SGP4","NORAD_CAT_ID":"49146","OBJECT_TYPE":"PAYLOAD","RCS_SIZE":"LARGE","BSTAR":"-0.00004530900000","MEAN_MOTION_DDOT":"0.0000000000000","SITE":"AFWTR","ARG_OF_PERICENTER":"276.0042","REF_FRAME":"TEME","PERIAPSIS":"357.094","ELEMENT_SET_NO":"999","GP_ID":"190687820","REV_AT_EPOCH":"368","TLE_LINE1":"1 49146U 21082S   21332.91668981 -.00005624  00000-0 -45309-4 0  9990","DECAY_DATE":null,"FILE":"3226391","MEAN_ANOMALY":"235.9051","RA_OF_ASC_NODE":"273.8213","ECCENTRICITY":"0.00036270","COUNTRY_CODE":"US","LAUNCH_DATE":"2021-09-14","MEAN_MOTION_DOT":"-0.00005624","TLE_LINE2":"2 49146  69.9986 273.8213 0003627 276.0042 235.9051 15.69776870  3686","SEMIMAJOR_AXIS":"6737.672","CENTER_NAME":"EARTH","EPHEMERIS_TYPE":"0","EPOCH":"2021-11-28T22:00:01.999584","OBJECT_NAME":"STARLINK-3116","TIME_SYSTEM":"UTC","INCLINATION":"69.9986"},{"TLE_LINE2":"2 49147  69.9973 273.8215 0003727 277.9785 229.6668 15.69772199  3684","SEMIMAJOR_AXIS":"6737.686","OBJECT_NAME":"STARLINK-3071","EPOCH":"2021-11-28T22:00:01.999584","INCLINATION":"69.9973","TIME_SYSTEM":"UTC","CENTER_NAME":"EARTH","EPHEMERIS_TYPE":"0","FILE":"3226391","TLE_LINE1":"1 49147U 21082T   21332.91668981 -.00005225  00000-0 -41975-4 0  9993","DECAY_DATE":null,"COUNTRY_CODE":"US","ECCENTRICITY":"0.00037270","LAUNCH_DATE":"2021-09-14","MEAN_MOTION_DOT":"-0.00005225","RA_OF_ASC_NODE":"273.8215","MEAN_ANOMALY":"229.6668","REF_FRAME":"TEME","SITE":"AFWTR","MEAN_MOTION_DDOT":"0.0000000000000","ARG_OF_PERICENTER":"277.9785","PERIAPSIS":"357.040","RCS_SIZE":"LARGE","BSTAR":"-0.00004197500000","GP_ID":"190687290","ELEMENT_SET_NO":"999","REV_AT_EPOCH":"368","APOAPSIS":"362.062","PERIOD":"91.733","MEAN_ELEMENT_THEORY":"SGP4","CLASSIFICATION_TYPE":"U","OBJECT_ID":"2021-082T","MEAN_MOTION":"15.69772199","OBJECT_TYPE":"PAYLOAD","NORAD_CAT_ID":"49147"},{"SEMIMAJOR_AXIS":"6737.549","TLE_LINE2":"2 49148  69.9987 273.8160 0003619 277.6788 240.6120 15.69820060  3686","INCLINATION":"69.9987","TIME_SYSTEM":"UTC","OBJECT_NAME":"STARLINK-3048","EPOCH":"2021-11-28T22:00:01.999584","EPHEMERIS_TYPE":"0","CENTER_NAME":"EARTH","FILE":"3226391","DECAY_DATE":null,"TLE_LINE1":"1 49148U 21082U   21332.91668981 -.00071570  00000-0 -60107-3 0  9997","LAUNCH_DATE":"2021-09-14","MEAN_MOTION_DOT":"-0.00071570","COUNTRY_CODE":"US","ECCENTRICITY":"0.00036190","RA_OF_ASC_NODE":"273.8160","MEAN_ANOMALY":"240.6120","PERIAPSIS":"356.976","REF_FRAME":"TEME","SITE":"AFWTR","MEAN_MOTION_DDOT":"0.0000000000000","ARG_OF_PERICENTER":"277.6788","BSTAR":"-0.00060107000000","RCS_SIZE":"LARGE","REV_AT_EPOCH":"368","GP_ID":"190687927","ELEMENT_SET_NO":"999","MEAN_ELEMENT_THEORY":"SGP4","PERIOD":"91.730","APOAPSIS":"361.852","OBJECT_ID":"2021-082U","MEAN_MOTION":"15.69820060","CLASSIFICATION_TYPE":"U","OBJECT_TYPE":"PAYLOAD","NORAD_CAT_ID":"49148"},{"RCS_SIZE":"LARGE","BSTAR":"-0.01725300000000","REF_FRAME":"TEME","SITE":"AFWTR","MEAN_MOTION_DDOT":"0.0000000000000","ARG_OF_PERICENTER":"282.3421","PERIAPSIS":"441.128","GP_ID":"190687438","ELEMENT_SET_NO":"999","REV_AT_EPOCH":"367","CLASSIFICATION_TYPE":"U","OBJECT_ID":"2021-082V","MEAN_MOTION":"15.40900234","APOAPSIS":"445.779","PERIOD":"93.452","MEAN_ELEMENT_THEORY":"SGP4","NORAD_CAT_ID":"49149","OBJECT_TYPE":"PAYLOAD","TLE_LINE2":"2 49149  70.0002 274.9659 0003409 282.3421 246.1927 15.40900234  3673","SEMIMAJOR_AXIS":"6821.588","CENTER_NAME":"EARTH","EPHEMERIS_TYPE":"0","EPOCH":"2021-11-28T22:00:01.999584","OBJECT_NAME":"STARLINK-3053","INCLINATION":"70.0002","TIME_SYSTEM":"UTC","TLE_LINE1":"1 49149U 21082V   21332.91668981 -.00661954  00000-0 -17253-1 0  9991","DECAY_DATE":null,"FILE":"3226391","RA_OF_ASC_NODE":"274.9659","MEAN_ANOMALY":"246.1927","ECCENTRICITY":"0.00034090","COUNTRY_CODE":"US","MEAN_MOTION_DOT":"-0.00661954","LAUNCH_DATE":"2021-09-14"},{"MEAN_MOTION":"15.40985245","OBJECT_ID":"2021-082W","CLASSIFICATION_TYPE":"U","PERIOD":"93.447","MEAN_ELEMENT_THEORY":"SGP4","APOAPSIS":"445.540","NORAD_CAT_ID":"49150","OBJECT_TYPE":"PAYLOAD","BSTAR":"-0.01719900000000","RCS_SIZE":"LARGE","PERIAPSIS":"440.865","ARG_OF_PERICENTER":"284.6591","SITE":"AFWTR","MEAN_MOTION_DDOT":"0.0000000000000","REF_FRAME":"TEME","REV_AT_EPOCH":"367","ELEMENT_SET_NO":"999","GP_ID":"190688055","DECAY_DATE":null,"TLE_LINE1":"1 49150U 21082W   21332.91668981 -.00661767  00000-0 -17199-1 0  9994","FILE":"3226391","MEAN_ANOMALY":"256.5369","RA_OF_ASC_NODE":"274.9633","LAUNCH_DATE":"2021-09-14","MEAN_MOTION_DOT":"-0.00661767","COUNTRY_CODE":"US","ECCENTRICITY":"0.00034270","SEMIMAJOR_AXIS":"6821.337","TLE_LINE2":"2 49150  70.0002 274.9633 0003427 284.6591 256.5369 15.40985245  3670","EPHEMERIS_TYPE":"0","CENTER_NAME":"EARTH","TIME_SYSTEM":"UTC","INCLINATION":"70.0002","EPOCH":"2021-11-28T22:00:01.999584","OBJECT_NAME":"STARLINK-3104"},{"RCS_SIZE":"LARGE","BSTAR":"-0.00004302800000","REF_FRAME":"TEME","SITE":"AFWTR","ARG_OF_PERICENTER":"278.5006","MEAN_MOTION_DDOT":"0.0000000000000","PERIAPSIS":"357.103","GP_ID":"190687566","ELEMENT_SET_NO":"999","REV_AT_EPOCH":"368","CLASSIFICATION_TYPE":"U","OBJECT_ID":"2021-082X","MEAN_MOTION":"15.69779115","APOAPSIS":"361.959","PERIOD":"91.733","MEAN_ELEMENT_THEORY":"SGP4","NORAD_CAT_ID":"49151","OBJECT_TYPE":"PAYLOAD","TLE_LINE2":"2 49151  69.9978 273.8060 0003603 278.5006 241.9117 15.69779115  3689","SEMIMAJOR_AXIS":"6737.666","CENTER_NAME":"EARTH","EPHEMERIS_TYPE":"0","EPOCH":"2021-11-28T22:00:01.999584","OBJECT_NAME":"STARLINK-3102","INCLINATION":"69.9978","TIME_SYSTEM":"UTC","TLE_LINE1":"1 49151U 21082X   21332.91668981 -.00005352  00000-0 -43028-4 0  9990","DECAY_DATE":null,"FILE":"3226391","RA_OF_ASC_NODE":"273.8060","MEAN_ANOMALY":"241.9117","COUNTRY_CODE":"US","ECCENTRICITY":"0.00036030","MEAN_MOTION_DOT":"-0.00005352","LAUNCH_DATE":"2021-09-14"},{"MEAN_MOTION":"15.69762437","OBJECT_ID":"2021-082Y","CLASSIFICATION_TYPE":"U","PERIOD":"91.734","MEAN_ELEMENT_THEORY":"SGP4","APOAPSIS":"362.105","NORAD_CAT_ID":"49152","OBJECT_TYPE":"PAYLOAD","BSTAR":"-0.00002312200000","RCS_SIZE":"LARGE","PERIAPSIS":"357.052","SITE":"AFWTR","MEAN_MOTION_DDOT":"0.0000000000000","ARG_OF_PERICENTER":"279.7923","REF_FRAME":"TEME","REV_AT_EPOCH":"368","ELEMENT_SET_NO":"999","GP_ID":"190687693","DECAY_DATE":null,"TLE_LINE1":"1 49152U 21082Y   21332.91668981 -.00002973  00000-0 -23122-4 0  9990","FILE":"3226391","MEAN_ANOMALY":"249.1641","RA_OF_ASC_NODE":"273.8014","MEAN_MOTION_DOT":"-0.00002973","LAUNCH_DATE":"2021-09-14","COUNTRY_CODE":"US","ECCENTRICITY":"0.00037500","SEMIMAJOR_AXIS":"6737.714","TLE_LINE2":"2 49152  69.9986 273.8014 0003750 279.7923 249.1641 15.69762437  3683","EPHEMERIS_TYPE":"0","CENTER_NAME":"EARTH","TIME_SYSTEM":"UTC","INCLINATION":"69.9986","EPOCH":"2021-11-28T22:00:01.999584","OBJECT_NAME":"STARLINK-3081"}];
